[{"OBJECT_NAME":"KUIPER-00218","OBJECT_ID":"2026-030S","EPOCH":"2026-03-12T15:13:59.687040","MEAN_MOTION":15.35355842,"ECCENTRICITY":0.0007103,"INCLINATION":51.8841,"RA_OF_ASC_NODE":205.0636,"ARG_OF_PERICENTER":58.4826,"MEAN_ANOMALY":301.6853,"EPHEMERIS_TYPE":0,"CLASSIFICATION_TYPE":"U","NORAD_CAT_ID":67780,"ELEMENT_SET_NO":999,"REV_AT_EPOCH":554,"BSTAR":0.00095182,"MEAN_MOTION_DOT":0.0003297,"MEAN_MOTION_DDOT":0},{"OBJECT_NAME":"KUIPER-00220","OBJECT_ID":"2026-030T","EPOCH":"2026-03-12T13:51:52.009920","MEAN_MOTION":15.34940236,"ECCENTRICITY":0.0008536,"INCLINATION":51.8815,"RA_OF_ASC_NODE":205.4205,"ARG_OF_PERICENTER":64.1453,"MEAN_ANOMALY":296.0412,"EPHEMERIS_TYPE":0,"CLASSIFICATION_TYPE":"U","NORAD_CAT_ID":67781,"ELEMENT_SET_NO":999,"REV_AT_EPOCH":553,"BSTAR":0.0010621,"MEAN_MOTION_DOT":0.00036374,"MEAN_MOTION_DDOT":0},{"OBJECT_NAME":"KUIPER-00222","OBJECT_ID":"2026-030U","EPOCH":"2026-03-12T17:48:19.588896","MEAN_MOTION":15.32177597,"ECCENTRICITY":0.0017381,"INCLINATION":51.8794,"RA_OF_ASC_NODE":205.0095,"ARG_OF_PERICENTER":76.7472,"MEAN_ANOMALY":283.545,"EPHEMERIS_TYPE":0,"CLASSIFICATION_TYPE":"U","NORAD_CAT_ID":67782,"ELEMENT_SET_NO":999,"REV_AT_EPOCH":555,"BSTAR":0.0011011,"MEAN_MOTION_DOT":0.0003466,"MEAN_MOTION_DDOT":0},{"OBJECT_NAME":"KUIPER-00223","OBJECT_ID":"2026-030V","EPOCH":"2026-03-12T18:47:23.576928","MEAN_MOTION":15.34266835,"ECCENTRICITY":0.00124,"INCLINATION":51.8835,"RA_OF_ASC_NODE":204.5516,"ARG_OF_PERICENTER":67.4257,"MEAN_ANOMALY":292.8039,"EPHEMERIS_TYPE":0,"CLASSIFICATION_TYPE":"U","NORAD_CAT_ID":67783,"ELEMENT_SET_NO":999,"REV_AT_EPOCH":556,"BSTAR":0.0011229,"MEAN_MOTION_DOT":0.0003771,"MEAN_MOTION_DDOT":0},{"OBJECT_NAME":"KUIPER-00225","OBJECT_ID":"2026-030W","EPOCH":"2026-03-12T18:03:27.982080","MEAN_MOTION":15.35574856,"ECCENTRICITY":0.0003029,"INCLINATION":51.8813,"RA_OF_ASC_NODE":204.3497,"ARG_OF_PERICENTER":38.5587,"MEAN_ANOMALY":321.5615,"EPHEMERIS_TYPE":0,"CLASSIFICATION_TYPE":"U","NORAD_CAT_ID":67784,"ELEMENT_SET_NO":999,"REV_AT_EPOCH":556,"BSTAR":0.016523,"MEAN_MOTION_DOT":0.00622202,"MEAN_MOTION_DDOT":0},{"OBJECT_NAME":"KUIPER-00226","OBJECT_ID":"2026-030X","EPOCH":"2026-03-12T18:14:53.561760","MEAN_MOTION":15.3064908,"ECCENTRICITY":0.0019441,"INCLINATION":51.8829,"RA_OF_ASC_NODE":205.1308,"ARG_OF_PERICENTER":80.7069,"MEAN_ANOMALY":279.6113,"EPHEMERIS_TYPE":0,"CLASSIFICATION_TYPE":"U","NORAD_CAT_ID":67785,"ELEMENT_SET_NO":999,"REV_AT_EPOCH":555,"BSTAR":0.0011852,"MEAN_MOTION_DOT":0.00035628,"MEAN_MOTION_DDOT":0},{"OBJECT_NAME":"KUIPER-00259","OBJECT_ID":"2026-030Y","EPOCH":"2026-03-12T18:25:07.896864","MEAN_MOTION":15.35239757,"ECCENTRICITY":0.0008874,"INCLINATION":51.8816,"RA_OF_ASC_NODE":204.447,"ARG_OF_PERICENTER":57.5068,"MEAN_ANOMALY":302.6775,"EPHEMERIS_TYPE":0,"CLASSIFICATION_TYPE":"U","NORAD_CAT_ID":67786,"ELEMENT_SET_NO":999,"REV_AT_EPOCH":556,"BSTAR":0.0010401,"MEAN_MOTION_DOT":0.00035957,"MEAN_MOTION_DDOT":0},{"OBJECT_NAME":"KUIPER-00260","OBJECT_ID":"2026-030Z","EPOCH":"2026-03-12T17:48:29.892096","MEAN_MOTION":15.36687579,"ECCENTRICITY":0.0001776,"INCLINATION":51.8805,"RA_OF_ASC_NODE":204.281,"ARG_OF_PERICENTER":41.9993,"MEAN_ANOMALY":318.1129,"EPHEMERIS_TYPE":0,"CLASSIFICATION_TYPE":"U","NORAD_CAT_ID":67787,"ELEMENT_SET_NO":999,"REV_AT_EPOCH":547,"BSTAR":0.0010514,"MEAN_MOTION_DOT":0.00038066,"MEAN_MOTION_DDOT":0},{"OBJECT_NAME":"KUIPER-00262","OBJECT_ID":"2026-030AA","EPOCH":"2026-03-12T17:41:59.840160","MEAN_MOTION":15.36877241,"ECCENTRICITY":8.74e-5,"INCLINATION":51.8819,"RA_OF_ASC_NODE":204.2534,"ARG_OF_PERICENTER":34.0598,"MEAN_ANOMALY":326.0445,"EPHEMERIS_TYPE":0,"CLASSIFICATION_TYPE":"U","NORAD_CAT_ID":67788,"ELEMENT_SET_NO":999,"REV_AT_EPOCH":556,"BSTAR":0.0012236,"MEAN_MOTION_DOT":0.00044675,"MEAN_MOTION_DDOT":0},{"OBJECT_NAME":"KUIPER-00266","OBJECT_ID":"2026-030AB","EPOCH":"2026-03-12T15:13:22.223136","MEAN_MOTION":15.30744734,"ECCENTRICITY":0.002315,"INCLINATION":51.8822,"RA_OF_ASC_NODE":205.7789,"ARG_OF_PERICENTER":84.626,"MEAN_ANOMALY":275.7364,"EPHEMERIS_TYPE":0,"CLASSIFICATION_TYPE":"U","NORAD_CAT_ID":67789,"ELEMENT_SET_NO":999,"REV_AT_EPOCH":553,"BSTAR":0.00096376,"MEAN_MOTION_DOT":0.00029032,"MEAN_MOTION_DDOT":0},{"OBJECT_NAME":"KUIPER-00268","OBJECT_ID":"2026-030AC","EPOCH":"2026-03-12T17:59:13.193664","MEAN_MOTION":15.36176538,"ECCENTRICITY":0.000258,"INCLINATION":51.8845,"RA_OF_ASC_NODE":204.3408,"ARG_OF_PERICENTER":44.1237,"MEAN_ANOMALY":315.9955,"EPHEMERIS_TYPE":0,"CLASSIFICATION_TYPE":"U","NORAD_CAT_ID":67790,"ELEMENT_SET_NO":999,"REV_AT_EPOCH":556,"BSTAR":0.0010036,"MEAN_MOTION_DOT":0.0003571,"MEAN_MOTION_DDOT":0},{"OBJECT_NAME":"KUIPER-00270","OBJECT_ID":"2026-030AD","EPOCH":"2026-03-12T18:35:54.302784","MEAN_MOTION":15.34798865,"ECCENTRICITY":0.0009859,"INCLINATION":51.8819,"RA_OF_ASC_NODE":204.4931,"ARG_OF_PERICENTER":64.6977,"MEAN_ANOMALY":295.5029,"EPHEMERIS_TYPE":0,"CLASSIFICATION_TYPE":"U","NORAD_CAT_ID":67791,"ELEMENT_SET_NO":999,"REV_AT_EPOCH":556,"BSTAR":0.0011347,"MEAN_MOTION_DOT":0.00038736,"MEAN_MOTION_DDOT":0},{"OBJECT_NAME":"KUIPER-00274","OBJECT_ID":"2026-030AE","EPOCH":"2026-03-12T15:02:03.874272","MEAN_MOTION":15.29839206,"ECCENTRICITY":0.0017716,"INCLINATION":51.8822,"RA_OF_ASC_NODE":205.7385,"ARG_OF_PERICENTER":80.0932,"MEAN_ANOMALY":280.2051,"EPHEMERIS_TYPE":0,"CLASSIFICATION_TYPE":"U","NORAD_CAT_ID":67792,"ELEMENT_SET_NO":999,"REV_AT_EPOCH":553,"BSTAR":-2.5386e-5,"MEAN_MOTION_DOT":-1.118e-5,"MEAN_MOTION_DDOT":0},{"OBJECT_NAME":"KUIPER-00275","OBJECT_ID":"2026-030AF","EPOCH":"2026-03-12T18:31:32.746656","MEAN_MOTION":15.34909681,"ECCENTRICITY":0.0009442,"INCLINATION":51.8845,"RA_OF_ASC_NODE":204.486,"ARG_OF_PERICENTER":62.2662,"MEAN_ANOMALY":297.928,"EPHEMERIS_TYPE":0,"CLASSIFICATION_TYPE":"U","NORAD_CAT_ID":67793,"ELEMENT_SET_NO":999,"REV_AT_EPOCH":556,"BSTAR":0.0011215,"MEAN_MOTION_DOT":0.00038412,"MEAN_MOTION_DDOT":0},{"OBJECT_NAME":"KUIPER-00276","OBJECT_ID":"2026-030AG","EPOCH":"2026-03-12T15:06:16.520832","MEAN_MOTION":15.30148532,"ECCENTRICITY":0.0018967,"INCLINATION":51.8837,"RA_OF_ASC_NODE":205.7554,"ARG_OF_PERICENTER":76.1812,"MEAN_ANOMALY":284.1281,"EPHEMERIS_TYPE":0,"CLASSIFICATION_TYPE":"U","NORAD_CAT_ID":67794,"ELEMENT_SET_NO":999,"REV_AT_EPOCH":553,"BSTAR":0.00097231,"MEAN_MOTION_DOT":0.00028673,"MEAN_MOTION_DDOT":0},{"OBJECT_NAME":"KUIPER-00279","OBJECT_ID":"2026-030AH","EPOCH":"2026-03-12T15:09:42.474240","MEAN_MOTION":15.35569097,"ECCENTRICITY":0.0006295,"INCLINATION":51.8802,"RA_OF_ASC_NODE":205.0349,"ARG_OF_PERICENTER":54.7585,"MEAN_ANOMALY":305.3989,"EPHEMERIS_TYPE":0,"CLASSIFICATION_TYPE":"U","NORAD_CAT_ID":67795,"ELEMENT_SET_NO":999,"REV_AT_EPOCH":554,"BSTAR":0.00092933,"MEAN_MOTION_DOT":0.00032397,"MEAN_MOTION_DDOT":0},{"OBJECT_NAME":"CREW DRAGON 12","OBJECT_ID":"2026-031A","EPOCH":"2026-03-12T19:18:27.745920","MEAN_MOTION":15.48609576,"ECCENTRICITY":0.000797,"INCLINATION":51.6325,"RA_OF_ASC_NODE":56.9556,"ARG_OF_PERICENTER":185.8192,"MEAN_ANOMALY":174.2705,"EPHEMERIS_TYPE":0,"CLASSIFICATION_TYPE":"U","NORAD_CAT_ID":67796,"ELEMENT_SET_NO":999,"REV_AT_EPOCH":55671,"BSTAR":0.00018665,"MEAN_MOTION_DOT":9.714e-5,"MEAN_MOTION_DDOT":0}]
